start=new Date('2022-12-28T00:00:00.000Z').valueOf();
sats=[{"EPHEMERIS_TYPE":"0","MEAN_ANOMALY":"310.2192","REF_FRAME":"TEME","CENTER_NAME":"EARTH","MEAN_MOTION":"15.06408989","REV_AT_EPOCH":"13293","COUNTRY_CODE":"US","PERIAPSIS":"545.881","GP_ID":"221562638","TIME_SYSTEM":"UTC","OBJECT_TYPE":"PAYLOAD","TLE_LINE1":"1 46055U 20055AE  22361.31286944  .00004179  00000-0  29923-3 0  9992","APOAPSIS":"548.491","ECCENTRICITY":"0.00018850","RCS_SIZE":"LARGE","PERIOD":"95.592","ELEMENT_SET_NO":"999","EPOCH":"2022-12-27T07:30:31.919616","TLE_LINE2":"2 46055  53.0546 321.6547 0001885  49.8962 310.2192 15.06408989132939","SITE":"AFETR","RA_OF_ASC_NODE":"321.6547","OBJECT_ID":"2020-055AE","MEAN_MOTION_DOT":"0.00004179","MEAN_MOTION_DDOT":"0.0000000000000","OBJECT_NAME":"STARLINK-1554","SEMIMAJOR_AXIS":"6925.321","ARG_OF_PERICENTER":"49.8962","CLASSIFICATION_TYPE":"U","DECAY_DATE":null,"FILE":"3723863","MEAN_ELEMENT_THEORY":"SGP4","NORAD_CAT_ID":"46055","BSTAR":"0.00029923000000","INCLINATION":"53.0546","LAUNCH_DATE":"2020-08-07"},{"CLASSIFICATION_TYPE":"U","ARG_OF_PERICENTER":"49.0399","FILE":"3723863","MEAN_ELEMENT_THEORY":"SGP4","DECAY_DATE":null,"NORAD_CAT_ID":"46056","BSTAR":"0.00008544500000","INCLINATION":"53.0556","LAUNCH_DATE":"2020-08-07","TLE_LINE2":"2 46056  53.0556 321.5727 0001836  49.0399 311.0749 15.06404142132947","EPOCH":"2022-12-27T08:01:00.733728","SITE":"AFETR","ELEMENT_SET_NO":"999","RA_OF_ASC_NODE":"321.5727","OBJECT_ID":"2020-055AF","MEAN_MOTION_DDOT":"0.0000000000000","MEAN_MOTION_DOT":"0.00000991","SEMIMAJOR_AXIS":"6925.336","OBJECT_NAME":"STARLINK-1561","APOAPSIS":"548.472","ECCENTRICITY":"0.00018360","RCS_SIZE":"LARGE","PERIOD":"95.592","MEAN_ANOMALY":"311.0749","EPHEMERIS_TYPE":"0","REF_FRAME":"TEME","CENTER_NAME":"EARTH","MEAN_MOTION":"15.06404142","REV_AT_EPOCH":"13294","PERIAPSIS":"545.929","COUNTRY_CODE":"US","GP_ID":"221561387","TIME_SYSTEM":"UTC","OBJECT_TYPE":"PAYLOAD","TLE_LINE1":"1 46056U 20055AF  22361.33403627  .00000991  00000-0  85445-4 0  9994"},{"BSTAR":"0.00086516000000","INCLINATION":"53.0547","LAUNCH_DATE":"2020-08-07","ARG_OF_PERICENTER":"83.9625","CLASSIFICATION_TYPE":"U","DECAY_DATE":null,"FILE":"3724149","MEAN_ELEMENT_THEORY":"SGP4","NORAD_CAT_ID":"46058","MEAN_MOTION_DOT":"0.00012637","MEAN_MOTION_DDOT":"0.0000000000000","SEMIMAJOR_AXIS":"6925.269","OBJECT_NAME":"STARLINK-1564","ELEMENT_SET_NO":"999","SITE":"AFETR","TLE_LINE2":"2 46058  53.0547 320.3320 0001486  83.9625 276.1533 15.06425933132971","EPOCH":"2022-12-27T14:40:27.011136","RA_OF_ASC_NODE":"320.3320","OBJECT_ID":"2020-055AH","ECCENTRICITY":"0.00014860","RCS_SIZE":"LARGE","PERIOD":"95.590","APOAPSIS":"548.163","PERIAPSIS":"546.105","COUNTRY_CODE":"US","TIME_SYSTEM":"UTC","GP_ID":"221619392","OBJECT_TYPE":"PAYLOAD","TLE_LINE1":"1 46058U 20055AH  22361.61142374  .00012637  00000-0  86516-3 0  9995","EPHEMERIS_TYPE":"0","MEAN_ANOMALY":"276.1533","REF_FRAME":"TEME","CENTER_NAME":"EARTH","REV_AT_EPOCH":"13297","MEAN_MOTION":"15.06425933"},{"EPHEMERIS_TYPE":"0","MEAN_ANOMALY":"309.5176","REF_FRAME":"TEME","CENTER_NAME":"EARTH","MEAN_MOTION":"15.06404960","REV_AT_EPOCH":"13239","COUNTRY_CODE":"US","PERIAPSIS":"545.891","GP_ID":"221598215","TIME_SYSTEM":"UTC","OBJECT_TYPE":"PAYLOAD","TLE_LINE1":"1 46059U 20055AJ  22361.28706827 -.00000071  00000-0  14143-4 0  9996","APOAPSIS":"548.506","ECCENTRICITY":"0.00018880","RCS_SIZE":"LARGE","PERIOD":"95.592","ELEMENT_SET_NO":"999","TLE_LINE2":"2 46059  53.0554 321.7936 0001888  50.5980 309.5176 15.06404960132395","EPOCH":"2022-12-27T06:53:22.698528","SITE":"AFETR","RA_OF_ASC_NODE":"321.7936","OBJECT_ID":"2020-055AJ","MEAN_MOTION_DOT":"-0.00000071","MEAN_MOTION_DDOT":"0.0000000000000","SEMIMAJOR_AXIS":"6925.333","OBJECT_NAME":"STARLINK-1570","ARG_OF_PERICENTER":"50.5980","CLASSIFICATION_TYPE":"U","FILE":"3724089","MEAN_ELEMENT_THEORY":"SGP4","DECAY_DATE":null,"NORAD_CAT_ID":"46059","BSTAR":"0.00001414300000","INCLINATION":"53.0554","LAUNCH_DATE":"2020-08-07"},{"TLE_LINE1":"1 46060U 20055AK  22361.41607070  .00003972  00000-0  28530-3 0  9999","TIME_SYSTEM":"UTC","GP_ID":"221562139","OBJECT_TYPE":"PAYLOAD","PERIAPSIS":"546.291","COUNTRY_CODE":"US","REV_AT_EPOCH":"13291","MEAN_MOTION":"15.06415645","CENTER_NAME":"EARTH","REF_FRAME":"TEME","MEAN_ANOMALY":"277.2037","EPHEMERIS_TYPE":"0","PERIOD":"95.591","RCS_SIZE":"LARGE","ECCENTRICITY":"0.00012630","APOAPSIS":"548.040","SEMIMAJOR_AXIS":"6925.301","OBJECT_NAME":"STARLINK-1572","MEAN_MOTION_DDOT":"0.0000000000000","MEAN_MOTION_DOT":"0.00003972","OBJECT_ID":"2020-055AK","RA_OF_ASC_NODE":"321.2065","SITE":"AFETR","TLE_LINE2":"2 46060  53.0539 321.2065 0001263  82.9095 277.2037 15.06415645132918","EPOCH":"2022-12-27T09:59:08.508480","ELEMENT_SET_NO":"999","LAUNCH_DATE":"2020-08-07","INCLINATION":"53.0539","BSTAR":"0.00028530000000","NORAD_CAT_ID":"46060","FILE":"3723863","MEAN_ELEMENT_THEORY":"SGP4","DECAY_DATE":null,"CLASSIFICATION_TYPE":"U","ARG_OF_PERICENTER":"82.9095"},{"RCS_SIZE":"LARGE","PERIOD":"95.592","ECCENTRICITY":"0.00019930","APOAPSIS":"548.586","GP_ID":"221619141","TIME_SYSTEM":"UTC","OBJECT_TYPE":"PAYLOAD","TLE_LINE1":"1 46061U 20055AL  22361.60773889  .00002693  00000-0  19960-3 0  9999","COUNTRY_CODE":"US","PERIAPSIS":"545.826","CENTER_NAME":"EARTH","REV_AT_EPOCH":"13297","MEAN_MOTION":"15.06402480","EPHEMERIS_TYPE":"0","MEAN_ANOMALY":"311.2450","REF_FRAME":"TEME","INCLINATION":"53.0554","BSTAR":"0.00019960000000","LAUNCH_DATE":"2020-08-07","NORAD_CAT_ID":"46061","ARG_OF_PERICENTER":"48.8711","CLASSIFICATION_TYPE":"U","FILE":"3724149","MEAN_ELEMENT_THEORY":"SGP4","DECAY_DATE":null,"SEMIMAJOR_AXIS":"6925.341","OBJECT_NAME":"STARLINK-1573","MEAN_MOTION_DOT":"0.00002693","MEAN_MOTION_DDOT":"0.0000000000000","RA_OF_ASC_NODE":"320.3569","OBJECT_ID":"2020-055AL","ELEMENT_SET_NO":"999","EPOCH":"2022-12-27T14:35:08.640096","TLE_LINE2":"2 46061  53.0554 320.3569 0001993  48.8711 311.2450 15.06402480132978","SITE":"AFETR"},{"GP_ID":"221561638","TIME_SYSTEM":"UTC","OBJECT_TYPE":"PAYLOAD","TLE_LINE1":"1 46062U 20055AM  22361.30918657  .00002727  00000-0  20181-3 0  9996","PERIAPSIS":"546.109","COUNTRY_CODE":"US","CENTER_NAME":"EARTH","MEAN_MOTION":"15.06410686","REV_AT_EPOCH":"13289","MEAN_ANOMALY":"263.1192","EPHEMERIS_TYPE":"0","REF_FRAME":"TEME","RCS_SIZE":"LARGE","PERIOD":"95.591","ECCENTRICITY":"0.00015480","APOAPSIS":"548.253","SEMIMAJOR_AXIS":"6925.316","OBJECT_NAME":"STARLINK-1574","MEAN_MOTION_DDOT":"0.0000000000000","MEAN_MOTION_DOT":"0.00002727","RA_OF_ASC_NODE":"321.6714","OBJECT_ID":"2020-055AM","TLE_LINE2":"2 46062  53.0546 321.6714 0001548  96.9973 263.1192 15.06410686132892","EPOCH":"2022-12-27T07:25:13.719648","SITE":"AFETR","ELEMENT_SET_NO":"999","INCLINATION":"53.0546","BSTAR":"0.00020181000000","LAUNCH_DATE":"2020-08-07","NORAD_CAT_ID":"46062","CLASSIFICATION_TYPE":"U","ARG_OF_PERICENTER":"96.9973","FILE":"3723863","MEAN_ELEMENT_THEORY":"SGP4","DECAY_DATE":null},{"PERIOD":"95.592","RCS_SIZE":"LARGE","ECCENTRICITY":"0.00017360","APOAPSIS":"548.399","TLE_LINE1":"1 46063U 20055AN  22361.30548869  .00001696  00000-0  13270-3 0  9996","GP_ID":"221561889","TIME_SYSTEM":"UTC","OBJECT_TYPE":"PAYLOAD","PERIAPSIS":"545.994","COUNTRY_CODE":"US","MEAN_MOTION":"15.06405562","REV_AT_EPOCH":"13292","CENTER_NAME":"EARTH","REF_FRAME":"TEME","EPHEMERIS_TYPE":"0","MEAN_ANOMALY":"297.2086","LAUNCH_DATE":"2020-08-07","BSTAR":"0.00013270000000","INCLINATION":"53.0551","NORAD_CAT_ID":"46063","FILE":"3723863","MEAN_ELEMENT_THEORY":"SGP4","DECAY_DATE":null,"ARG_OF_PERICENTER":"62.9080","CLASSIFICATION_TYPE":"U","SEMIMAJOR_AXIS":"6925.332","OBJECT_NAME":"STARLINK-1577","MEAN_MOTION_DOT":"0.00001696","MEAN_MOTION_DDOT":"0.0000000000000","OBJECT_ID":"2020-055AN","RA_OF_ASC_NODE":"321.7010","ELEMENT_SET_NO":"999","TLE_LINE2":"2 46063  53.0551 321.7010 0001736  62.9080 297.2086 15.06405562132921","EPOCH":"2022-12-27T07:19:54.222816","SITE":"AFETR"},{"REF_FRAME":"TEME","EPHEMERIS_TYPE":"0","MEAN_ANOMALY":"311.9955","REV_AT_EPOCH":"13297","MEAN_MOTION":"15.06404632","CENTER_NAME":"EARTH","PERIAPSIS":"545.850","COUNTRY_CODE":"US","TLE_LINE1":"1 46064U 20055AP  22361.60405337  .00001031  00000-0  88127-4 0  9999","GP_ID":"221618392","OBJECT_TYPE":"PAYLOAD","TIME_SYSTEM":"UTC","APOAPSIS":"548.549","ECCENTRICITY":"0.00019490","PERIOD":"95.592","RCS_SIZE":"LARGE","ELEMENT_SET_NO":"999","EPOCH":"2022-12-27T14:29:50.211168","TLE_LINE2":"2 46064  53.0565 320.3651 0001949  48.1200 311.9955 15.06404632132970","SITE":"AFETR","OBJECT_ID":"2020-055AP","RA_OF_ASC_NODE":"320.3651","MEAN_MOTION_DOT":"0.00001031","MEAN_MOTION_DDOT":"0.0000000000000","OBJECT_NAME":"STARLINK-1583","SEMIMAJOR_AXIS":"6925.334","DECAY_DATE":null,"FILE":"3724149","MEAN_ELEMENT_THEORY":"SGP4","ARG_OF_PERICENTER":"48.1200","CLASSIFICATION_TYPE":"U","NORAD_CAT_ID":"46064","LAUNCH_DATE":"2020-08-07","BSTAR":"0.00008812700000","INCLINATION":"53.0565"},{"APOAPSIS":"548.155","PERIOD":"95.591","RCS_SIZE":"LARGE","ECCENTRICITY":"0.00014280","REV_AT_EPOCH":"13322","MEAN_MOTION":"15.06415506","CENTER_NAME":"EARTH","REF_FRAME":"TEME","EPHEMERIS_TYPE":"0","MEAN_ANOMALY":"276.4487","TLE_LINE1":"1 46065U 20055AQ  22361.53122694  .00003493  00000-0  25316-3 0  9998","TIME_SYSTEM":"UTC","GP_ID":"221561388","OBJECT_TYPE":"PAYLOAD","PERIAPSIS":"546.177","COUNTRY_CODE":"US","NORAD_CAT_ID":"46065","FILE":"3723863","DECAY_DATE":null,"MEAN_ELEMENT_THEORY":"SGP4","ARG_OF_PERICENTER":"83.6664","CLASSIFICATION_TYPE":"U","LAUNCH_DATE":"2020-08-07","INCLINATION":"53.0524","BSTAR":"0.00025316000000","OBJECT_ID":"2020-055AQ","RA_OF_ASC_NODE":"300.6982","ELEMENT_SET_NO":"999","TLE_LINE2":"2 46065  53.0524 300.6982 0001428  83.6664 276.4487 15.06415506133220","SITE":"AFETR","EPOCH":"2022-12-27T12:44:58.007616","SEMIMAJOR_AXIS":"6925.301","OBJECT_NAME":"STARLINK-1515","MEAN_MOTION_DOT":"0.00003493","MEAN_MOTION_DDOT":"0.0000000000000"}];
